[{"OBJECT_NAME":"LEMUR-2-KREMPEL-BRO1","OBJECT_ID":"2025-061G","EPOCH":"2026-03-14T10:12:22.628160","MEAN_MOTION":15.13818661,"ECCENTRICITY":0.00179248,"INCLINATION":97.5528,"RA_OF_ASC_NODE":49.9851,"ARG_OF_PERICENTER":211.5583,"MEAN_ANOMALY":148.4574,"EPHEMERIS_TYPE":0,"CLASSIFICATION_TYPE":"U","NORAD_CAT_ID":63357,"ELEMENT_SET_NO":999,"REV_AT_EPOCH":5329,"BSTAR":0.00030017672,"MEAN_MOTION_DOT":5.376e-5,"MEAN_MOTION_DDOT":0},{"OBJECT_NAME":"LEMUR-2-LANGER2SPACE","OBJECT_ID":"2025-061H","EPOCH":"2026-03-13T23:16:51.730752","MEAN_MOTION":15.13507092,"ECCENTRICITY":0.00156198,"INCLINATION":97.5534,"RA_OF_ASC_NODE":49.3862,"ARG_OF_PERICENTER":222.0034,"MEAN_ANOMALY":138.0001,"EPHEMERIS_TYPE":0,"CLASSIFICATION_TYPE":"U","NORAD_CAT_ID":63358,"ELEMENT_SET_NO":999,"REV_AT_EPOCH":5321,"BSTAR":0.00028167366,"MEAN_MOTION_DOT":4.991e-5,"MEAN_MOTION_DDOT":0},{"OBJECT_NAME":"LEMUR-2-BALTO","OBJECT_ID":"2025-052BH","EPOCH":"2026-03-14T15:13:59.722464","MEAN_MOTION":14.99012965,"ECCENTRICITY":0.00016684,"INCLINATION":97.6982,"RA_OF_ASC_NODE":328.3939,"ARG_OF_PERICENTER":354.966,"MEAN_ANOMALY":5.1546,"EPHEMERIS_TYPE":0,"CLASSIFICATION_TYPE":"U","NORAD_CAT_ID":63395,"ELEMENT_SET_NO":999,"REV_AT_EPOCH":5459,"BSTAR":0.00077831797,"MEAN_MOTION_DOT":9.383e-5,"MEAN_MOTION_DDOT":0}]
