LEMUR-2-KREMPEL-BRO1    
1 63357U 25061G   26073.42526190  .00005376  00000+0  30018-3 0  9990
2 63357  97.5528  49.9851 0017924 211.5583 148.4574 15.13818661 53298
LEMUR-2-LANGER2SPACE    
1 63358U 25061H   26072.97004318  .00004991  00000+0  28167-3 0  9997
2 63358  97.5534  49.3862 0015619 222.0034 138.0001 15.13507092 53214
LEMUR-2-BALTO           
1 63395U 25052BH  26073.63471901  .00009383  00000+0  77832-3 0  9991
2 63395  97.6982 328.3939 0001668 354.9660   5.1546 14.99012965 54590
